{"fetched_at":"2026-03-29T02:12:04Z","count":15717,"tles":[{"name":"GEESAT-4 05","line1":"1 65123U 25170E   26086.65484786  .00001486  00000+0  20046-3 0  9995","line2":"2 65123  49.9980 145.4877 0017840 357.1825   2.9010 14.84667224 34952","category":"Other"}]}